{"type":"FeatureCollection","features":[{"type":"Feature","properties":{"name":"DC Cook-Lovell","ordinance":"G15-07","ord_link":"https://lf-forms.cityofelgin.net/laserfiche/Docview.aspx?db=Elgin-Public-Administration&docid=8226433"},"geometry":{"type":"Polygon","coordinates":[[[-88.284688,42.056114],[-88.284699,42.05134],[-88.284548,42.05134],[-88.284549,42.050976],[-88.284657,42.050976],[-88.284656,42.050584],[-88.28455,42.050584],[-88.284549,42.049987],[-88.284514,42.049804],[-88.284512,42.049605],[-88.284549,42.049605],[-88.284549,42.049405],[-88.285496,42.049403],[-88.285498,42.049985],[-88.285785,42.049984],[-88.285787,42.050377],[-88.286091,42.050377],[-88.286093,42.050896],[-88.286303,42.050896],[-88.286303,42.05116],[-88.286939,42.051162],[-88.286943,42.053696],[-88.288356,42.053695],[-88.288674,42.053153],[-88.289588,42.053152],[-88.289587,42.053264],[-88.289526,42.053454],[-88.289288,42.053766],[-88.289178,42.053875],[-88.28782,42.053876],[-88.287606,42.054166],[-88.287311,42.054519],[-88.286829,42.055014],[-88.286497,42.055317],[-88.286196,42.055566],[-88.285853,42.055835],[-88.285402,42.05614],[-88.284763,42.056141],[-88.284688,42.056114]]]}},{"type":"Feature","properties":{"name":"Elgin","ordinance":"81-0311","ord_link":"https://elgin.app.box.com/file/1356976532828?s=1cs5g3ntp8htm0za9qs9ohfpzbztfq46"},"geometry":{"type":"Polygon","coordinates":[[[-88.276975,42.041455],[-88.276973,42.041223],[-88.276193,42.041225],[-88.276192,42.04108],[-88.275292,42.04109],[-88.275295,42.041449],[-88.274569,42.041447],[-88.274568,42.041311],[-88.274326,42.04131],[-88.274324,42.041133],[-88.273499,42.041129],[-88.273502,42.04144],[-88.272161,42.041432],[-88.27216,42.041327],[-88.271062,42.041322],[-88.271061,42.041241],[-88.270904,42.041241],[-88.270902,42.041059],[-88.270389,42.041053],[-88.270391,42.041236],[-88.269258,42.041228],[-88.269256,42.041104],[-88.269005,42.041105],[-88.269008,42.041231],[-88.268756,42.041232],[-88.268757,42.041321],[-88.268236,42.041322],[-88.268235,42.041235],[-88.267312,42.041224],[-88.267312,42.040693],[-88.266999,42.040695],[-88.266997,42.040014],[-88.266936,42.039835],[-88.26693,42.039335],[-88.267113,42.039333],[-88.267109,42.038876],[-88.266929,42.038878],[-88.266925,42.038325],[-88.267114,42.038324],[-88.267113,42.038103],[-88.267108,42.037924],[-88.266981,42.037924],[-88.266978,42.037605],[-88.266918,42.037605],[-88.266918,42.037572],[-88.26704,42.037571],[-88.267038,42.037362],[-88.266914,42.037363],[-88.266913,42.037064],[-88.267396,42.037058],[-88.267398,42.0368],[-88.267331,42.0368],[-88.267332,42.036615],[-88.267146,42.036616],[-88.267147,42.036482],[-88.267168,42.036482],[-88.267168,42.036437],[-88.267319,42.036436],[-88.267323,42.036163],[-88.267102,42.036163],[-88.267106,42.035807],[-88.267824,42.035806],[-88.26782,42.036162],[-88.268487,42.036159],[-88.268485,42.036397],[-88.269128,42.036394],[-88.269128,42.036291],[-88.269735,42.036289],[-88.269735,42.036238],[-88.270992,42.036232],[-88.270992,42.036302],[-88.272159,42.036302],[-88.272143,42.034442],[-88.272923,42.034437],[-88.27292,42.034166],[-88.273042,42.034166],[-88.273041,42.034081],[-88.273141,42.034079],[-88.273159,42.033358],[-88.273281,42.033357],[-88.273274,42.032676],[-88.273141,42.032678],[-88.273142,42.03254],[-88.272903,42.032544],[-88.27291,42.032198],[-88.273094,42.032194],[-88.27309,42.032124],[-88.27352,42.032115],[-88.273763,42.032174],[-88.278879,42.034393],[-88.279233,42.034576],[-88.280743,42.036216],[-88.280834,42.036397],[-88.280827,42.037317],[-88.280955,42.037317],[-88.280919,42.039566],[-88.280606,42.040034],[-88.280462,42.040171],[-88.279806,42.041141],[-88.279016,42.04114],[-88.279018,42.041373],[-88.278777,42.041372],[-88.278776,42.041241],[-88.278279,42.04124],[-88.278283,42.041459],[-88.276975,42.041455]]]}},{"type":"Feature","properties":{"name":"Spring-Douglas","ordinance":"G11-96","ord_link":"https://lf-forms.cityofelgin.net/laserfiche/Docview.aspx?db=Elgin-Public-Administration&docid=8226452"},"geometry":{"type":"Polygon","coordinates":[[[-88.284549,42.049605],[-88.284512,42.049605],[-88.284514,42.049804],[-88.28455,42.049984],[-88.28455,42.050584],[-88.284656,42.050584],[-88.284657,42.050976],[-88.284549,42.050976],[-88.284548,42.05134],[-88.284699,42.05134],[-88.28469,42.056559],[-88.284204,42.056808],[-88.283624,42.057069],[-88.282941,42.057002],[-88.282738,42.056946],[-88.282573,42.056866],[-88.282321,42.05687],[-88.28232,42.05705],[-88.281164,42.057062],[-88.281161,42.056609],[-88.281645,42.056603],[-88.281642,42.056152],[-88.281741,42.056151],[-88.28174,42.055156],[-88.281685,42.055157],[-88.281685,42.054976],[-88.282328,42.054968],[-88.282334,42.053154],[-88.281739,42.053162],[-88.281738,42.051163],[-88.281554,42.051166],[-88.281555,42.05085],[-88.281739,42.05085],[-88.28174,42.050358],[-88.28208,42.050357],[-88.282081,42.049997],[-88.281861,42.049816],[-88.281863,42.049421],[-88.28175,42.049421],[-88.281751,42.049215],[-88.281865,42.049215],[-88.281867,42.048392],[-88.282025,42.048391],[-88.282026,42.048073],[-88.281867,42.048073],[-88.281876,42.04634],[-88.281994,42.046341],[-88.281995,42.046107],[-88.281752,42.046107],[-88.281752,42.045975],[-88.281874,42.045976],[-88.281874,42.045792],[-88.281935,42.045792],[-88.281938,42.045067],[-88.281975,42.045067],[-88.281979,42.044524],[-88.281848,42.044523],[-88.281851,42.044341],[-88.281758,42.04434],[-88.28176,42.044157],[-88.282032,42.044158],[-88.282039,42.043793],[-88.282015,42.043655],[-88.282015,42.043474],[-88.281886,42.043473],[-88.281886,42.043171],[-88.282048,42.043171],[-88.282054,42.042792],[-88.281882,42.042791],[-88.281886,42.042651],[-88.282129,42.04265],[-88.28213,42.042429],[-88.281886,42.042428],[-88.281887,42.042245],[-88.282071,42.042245],[-88.282075,42.041809],[-88.284789,42.041815],[-88.284789,42.042938],[-88.284546,42.042938],[-88.284545,42.043663],[-88.284491,42.043799],[-88.28449,42.044529],[-88.28455,42.04471],[-88.284549,42.045431],[-88.28459,42.045613],[-88.284589,42.045843],[-88.284792,42.045844],[-88.284792,42.045866],[-88.284807,42.045866],[-88.284807,42.045978],[-88.284637,42.045977],[-88.284638,42.046339],[-88.28467,42.046478],[-88.284668,42.047022],[-88.284637,42.047021],[-88.284641,42.047339],[-88.284546,42.047338],[-88.284546,42.04752],[-88.284789,42.047521],[-88.284789,42.047703],[-88.284546,42.047702],[-88.284546,42.048067],[-88.284518,42.048202],[-88.284518,42.048521],[-88.284668,42.048521],[-88.284669,42.049205],[-88.28479,42.049205],[-88.284792,42.049404],[-88.284549,42.049405],[-88.284549,42.049605]]]}},{"type":"Feature","properties":{"name":"Elgin National Watch","ordinance":"G41-97","ord_link":"https://lf-forms.cityofelgin.net/laserfiche/Docview.aspx?db=Elgin-Public-Administration&docid=8225987"},"geometry":{"type":"Polygon","coordinates":[[[-88.272328,42.024323],[-88.272999,42.024327],[-88.272999,42.024313],[-88.273538,42.024314],[-88.273972,42.024384],[-88.275141,42.024359],[-88.276012,42.026232],[-88.275929,42.026231],[-88.275954,42.026393],[-88.276193,42.026666],[-88.274189,42.026658],[-88.2745,42.0275],[-88.274603,42.027848],[-88.275063,42.028637],[-88.275426,42.029218],[-88.275807,42.029787],[-88.275927,42.029785],[-88.276619,42.030644],[-88.276487,42.030693],[-88.278918,42.03308],[-88.278842,42.033154],[-88.278949,42.033259],[-88.27858,42.033743],[-88.278474,42.033698],[-88.278316,42.033889],[-88.273776,42.03192],[-88.273769,42.032115],[-88.27309,42.032124],[-88.273094,42.032194],[-88.27291,42.032198],[-88.272911,42.032128],[-88.272542,42.032136],[-88.272572,42.031896],[-88.271927,42.031751],[-88.269503,42.031273],[-88.268801,42.031284],[-88.268802,42.031103],[-88.26857,42.031107],[-88.268572,42.030971],[-88.267856,42.030977],[-88.267857,42.031299],[-88.267255,42.031304],[-88.267258,42.030314],[-88.267471,42.030313],[-88.267475,42.029974],[-88.267447,42.029974],[-88.267449,42.029792],[-88.267388,42.029792],[-88.267391,42.028737],[-88.267148,42.028736],[-88.26715,42.028509],[-88.266907,42.028508],[-88.266909,42.028061],[-88.267398,42.028064],[-88.2674,42.027617],[-88.266911,42.027614],[-88.266913,42.027104],[-88.267358,42.027106],[-88.267386,42.0258],[-88.267376,42.024928],[-88.267144,42.024747],[-88.26714,42.02462],[-88.267787,42.024619],[-88.267992,42.024464],[-88.268981,42.024464],[-88.269115,42.02422],[-88.269644,42.024222],[-88.269619,42.024082],[-88.270106,42.024079],[-88.270127,42.024227],[-88.270615,42.024229],[-88.270611,42.024199],[-88.271166,42.024199],[-88.271162,42.024148],[-88.271367,42.024131],[-88.271361,42.024048],[-88.27184,42.024049],[-88.271841,42.024185],[-88.272326,42.024185],[-88.272328,42.024323]]]}}]}