{"type":"FeatureCollection","features":[{"type":"Feature","properties":{"name":"Census Tract 851904","geoid":"17089851904"},"geometry":{"type":"MultiPolygon","coordinates":[[[[-88.376362,42.058064],[-88.376256,42.051713],[-88.376282,42.051713],[-88.376274,42.051123],[-88.371354,42.051149],[-88.37047,42.051143],[-88.370462,42.050268],[-88.365674,42.050329],[-88.365672,42.050052],[-88.360777,42.049708],[-88.360765,42.046773],[-88.358961,42.046782],[-88.3563,42.045753],[-88.357761,42.043086],[-88.360179,42.038334],[-88.356129,42.037391],[-88.356202,42.037285],[-88.360263,42.038242],[-88.36496,42.039804],[-88.373377,42.042816],[-88.373546,42.042858],[-88.373492,42.042955],[-88.371646,42.042318],[-88.370153,42.043276],[-88.369508,42.044551],[-88.367852,42.044511],[-88.366174,42.045121],[-88.36452,42.048295],[-88.365035,42.049162],[-88.370482,42.049438],[-88.37048,42.049493],[-88.371585,42.04949],[-88.371574,42.050318],[-88.376264,42.050305],[-88.376262,42.05011],[-88.376137,42.049911],[-88.376136,42.049856],[-88.376263,42.049882],[-88.376263,42.049916],[-88.376336,42.050033],[-88.376433,42.05345],[-88.376493,42.058108],[-88.376362,42.058064]]],[[[-88.352721,42.042017],[-88.354441,42.039638],[-88.356079,42.039926],[-88.354605,42.042291],[-88.354819,42.042373],[-88.354572,42.042775],[-88.352721,42.042017]]],[[[-88.355925,42.037283],[-88.355415,42.037163],[-88.355413,42.037949],[-88.353174,42.041019],[-88.351214,42.040183],[-88.351187,42.040078],[-88.350767,42.040277],[-88.350414,42.040161],[-88.349897,42.040215],[-88.349674,42.039151],[-88.349051,42.038746],[-88.348952,42.038584],[-88.348784,42.038641],[-88.347748,42.038015],[-88.346061,42.038003],[-88.346051,42.036881],[-88.342292,42.036239],[-88.342116,42.036787],[-88.342581,42.036826],[-88.342525,42.037523],[-88.342122,42.037499],[-88.341923,42.039025],[-88.342832,42.039079],[-88.343115,42.039113],[-88.343182,42.039195],[-88.341359,42.039083],[-88.341362,42.039985],[-88.341325,42.039985],[-88.34133,42.043303],[-88.334453,42.043406],[-88.333679,42.043187],[-88.332079,42.042916],[-88.331816,42.043365],[-88.337232,42.045127],[-88.337557,42.045256],[-88.337745,42.045347],[-88.338065,42.045537],[-88.341573,42.047845],[-88.341572,42.04799],[-88.340096,42.047058],[-88.3378,42.045528],[-88.336867,42.045124],[-88.335444,42.044676],[-88.328577,42.042348],[-88.327476,42.041996],[-88.323102,42.041345],[-88.311885,42.03977],[-88.311892,42.03731],[-88.311876,42.037194],[-88.311866,42.035141],[-88.311887,42.034809],[-88.311893,42.033167],[-88.311842,42.029401],[-88.311846,42.028427],[-88.311951,42.02523],[-88.311978,42.025223],[-88.312075,42.023486],[-88.314332,42.024147],[-88.314601,42.024246],[-88.31528,42.024427],[-88.317731,42.025269],[-88.320301,42.026061],[-88.320296,42.026489],[-88.322499,42.027243],[-88.322496,42.028942],[-88.325298,42.028909],[-88.325308,42.02779],[-88.326639,42.02823],[-88.32663,42.028894],[-88.327301,42.028888],[-88.327678,42.029066],[-88.327759,42.029065],[-88.327756,42.02861],[-88.32912,42.029077],[-88.330405,42.029535],[-88.33236,42.030194],[-88.332348,42.030738],[-88.332052,42.030743],[-88.332042,42.032301],[-88.33039,42.032445],[-88.33039,42.032908],[-88.330168,42.032911],[-88.330168,42.033185],[-88.331495,42.033169],[-88.331495,42.033443],[-88.330167,42.033458],[-88.330165,42.03424],[-88.336145,42.033958],[-88.336157,42.032335],[-88.335477,42.032167],[-88.335035,42.032159],[-88.335052,42.031112],[-88.335964,42.031471],[-88.338133,42.032272],[-88.338768,42.032434],[-88.339473,42.032639],[-88.341529,42.033382],[-88.343456,42.033928],[-88.346458,42.034866],[-88.350763,42.036015],[-88.352058,42.036267],[-88.352736,42.036465],[-88.355965,42.037229],[-88.355925,42.037283]],[[-88.330171,42.03159],[-88.329506,42.031592],[-88.329506,42.031867],[-88.33017,42.031866],[-88.330171,42.03159]]],[[[-88.343588,42.049143],[-88.344199,42.049559],[-88.346934,42.051538],[-88.346933,42.051511],[-88.34806,42.052309],[-88.349087,42.053006],[-88.34928,42.053117],[-88.349591,42.053267],[-88.349926,42.053393],[-88.350222,42.05348],[-88.350222,42.053596],[-88.349569,42.053441],[-88.348796,42.053013],[-88.343559,42.049289],[-88.343588,42.049143]]]]}},{"type":"Feature","properties":{"name":"Census Tract 851600","geoid":"17089851600"},"geometry":{"type":"Polygon","coordinates":[[[-88.287887,42.022338],[-88.288539,42.022331],[-88.292145,42.022386],[-88.297853,42.022478],[-88.298875,42.022509],[-88.300113,42.022511],[-88.300693,42.022532],[-88.301321,42.022521],[-88.301334,42.028036],[-88.300869,42.028266],[-88.300115,42.028541],[-88.298254,42.029392],[-88.297958,42.029582],[-88.296482,42.030624],[-88.295417,42.031411],[-88.294461,42.032082],[-88.294125,42.03234],[-88.293614,42.03269],[-88.287863,42.035141],[-88.289045,42.036694],[-88.288835,42.036819],[-88.287876,42.037225],[-88.287587,42.036915],[-88.287558,42.036834],[-88.287207,42.036465],[-88.286924,42.035969],[-88.286729,42.035779],[-88.286602,42.035574],[-88.286421,42.035349],[-88.286245,42.034998],[-88.285941,42.034533],[-88.285529,42.034009],[-88.285176,42.033491],[-88.284176,42.031791],[-88.283326,42.030209],[-88.283229,42.030088],[-88.283155,42.029901],[-88.284851,42.029843],[-88.284813,42.029029],[-88.284152,42.02905],[-88.284101,42.027466],[-88.2827,42.02751],[-88.282276,42.027502],[-88.281884,42.027619],[-88.281179,42.026394],[-88.279594,42.026434],[-88.279453,42.026323],[-88.279327,42.025997],[-88.279014,42.025457],[-88.278984,42.024674],[-88.27906,42.024464],[-88.27911,42.02423],[-88.278003,42.02421],[-88.275901,42.02033],[-88.27631,42.020367],[-88.277318,42.020545],[-88.278369,42.02075],[-88.27958,42.021029],[-88.282219,42.021674],[-88.283512,42.021971],[-88.285732,42.022293],[-88.287887,42.022338]]]}},{"type":"Feature","properties":{"name":"Census Tract 851400","geoid":"17089851400"},"geometry":{"type":"Polygon","coordinates":[[[-88.263481,42.038059],[-88.263383,42.037133],[-88.263383,42.036434],[-88.263283,42.033839],[-88.263383,42.030634],[-88.263285,42.029069],[-88.263282,42.026799],[-88.263326,42.026644],[-88.263327,42.025721],[-88.263295,42.023039],[-88.263234,42.022798],[-88.263226,42.021959],[-88.263383,42.020348],[-88.263383,42.020221],[-88.263326,42.020055],[-88.263321,42.019845],[-88.263293,42.019674],[-88.263261,42.0155],[-88.263578,42.015425],[-88.268867,42.015387],[-88.268449,42.017466],[-88.268518,42.019683],[-88.268515,42.020217],[-88.2705,42.020224],[-88.273837,42.020181],[-88.273876,42.020927],[-88.273777,42.02262],[-88.273872,42.025444],[-88.274422,42.02667],[-88.275504,42.02917],[-88.275269,42.029338],[-88.272189,42.030432],[-88.272769,42.031603],[-88.272225,42.031349],[-88.269629,42.030833],[-88.269628,42.031893],[-88.269662,42.032173],[-88.269679,42.03374],[-88.26904,42.033746],[-88.269008,42.03715],[-88.269016,42.038425],[-88.269348,42.038424],[-88.269402,42.042844],[-88.268452,42.042851],[-88.267634,42.042831],[-88.266731,42.04287],[-88.265726,42.042842],[-88.264606,42.042855],[-88.264579,42.043005],[-88.264518,42.043129],[-88.264413,42.043259],[-88.264054,42.043637],[-88.263764,42.044035],[-88.263553,42.044421],[-88.263585,42.044631],[-88.263478,42.044889],[-88.263484,42.042834],[-88.263384,42.039837],[-88.263383,42.038962],[-88.263481,42.038059]]]}}]}