{"type":"FeatureCollection","features":[{"type":"Feature","properties":{"name":"River Edge Redevelopment Zone \u2014 Elgin"},"geometry":{"type":"Polygon","coordinates":[[[-88.265216,42.063642],[-88.267688,42.063611],[-88.26789,42.062962],[-88.270868,42.062996],[-88.27149,42.062278],[-88.272094,42.061636],[-88.273133,42.060906],[-88.274824,42.06002],[-88.275819,42.059649],[-88.281168,42.057913],[-88.282852,42.05735],[-88.283552,42.057101],[-88.284523,42.056649],[-88.285301,42.056202],[-88.286271,42.055507],[-88.28727,42.054559],[-88.28782,42.053876],[-88.286899,42.053877],[-88.286925,42.045439],[-88.284063,42.04543],[-88.284067,42.043663],[-88.282618,42.04366],[-88.282619,42.041884],[-88.279581,42.041877],[-88.280278,42.040845],[-88.277904,42.040868],[-88.277921,42.038741],[-88.279711,42.038747],[-88.279747,42.035487],[-88.279652,42.035382],[-88.279529,42.034579],[-88.278882,42.034175],[-88.278196,42.033838],[-88.273772,42.031912],[-88.275332,42.031221],[-88.274222,42.029797],[-88.275619,42.029279],[-88.274715,42.027624],[-88.274384,42.026749],[-88.274506,42.026749],[-88.274078,42.025302],[-88.273922,42.024537],[-88.273976,42.023802],[-88.273988,42.023026],[-88.274359,42.020279],[-88.276262,42.020459],[-88.276416,42.020743],[-88.279371,42.021209],[-88.280726,42.021531],[-88.280886,42.021973],[-88.276953,42.021916],[-88.278823,42.025362],[-88.279325,42.026337],[-88.279456,42.026425],[-88.279621,42.026588],[-88.281866,42.029353],[-88.282706,42.029221],[-88.282922,42.029714],[-88.283944,42.03157],[-88.285333,42.033968],[-88.285678,42.03402],[-88.286755,42.033679],[-88.28732,42.034421],[-88.287215,42.034466],[-88.290722,42.03907],[-88.290591,42.039126],[-88.291363,42.040102],[-88.291989,42.040926],[-88.292061,42.041104],[-88.292503,42.04176],[-88.292863,42.042451],[-88.293606,42.044256],[-88.293763,42.044985],[-88.293401,42.044931],[-88.293249,42.045082],[-88.293436,42.045301],[-88.29363,42.045637],[-88.29377,42.045922],[-88.294005,42.046479],[-88.294498,42.047684],[-88.295067,42.049169],[-88.295684,42.050654],[-88.29595,42.051231],[-88.296056,42.05174],[-88.295894,42.052272],[-88.29576,42.052593],[-88.295714,42.052611],[-88.294125,42.052274],[-88.293758,42.052254],[-88.292987,42.052242],[-88.292721,42.053802],[-88.291524,42.053782],[-88.290784,42.058475],[-88.286553,42.058394],[-88.280572,42.058344],[-88.280408,42.058412],[-88.2802,42.058461],[-88.280018,42.058533],[-88.279846,42.058566],[-88.279707,42.058643],[-88.279377,42.058739],[-88.279089,42.05888],[-88.278496,42.059101],[-88.277626,42.059463],[-88.277431,42.059492],[-88.277253,42.059582],[-88.277078,42.059587],[-88.27693,42.059627],[-88.276306,42.059986],[-88.276198,42.060153],[-88.275969,42.060448],[-88.275861,42.060501],[-88.275727,42.060392],[-88.275576,42.060384],[-88.27514,42.060611],[-88.274835,42.060721],[-88.274669,42.060889],[-88.274095,42.061241],[-88.273907,42.061397],[-88.273742,42.061586],[-88.273678,42.061736],[-88.273451,42.062022],[-88.273328,42.062225],[-88.273088,42.06234],[-88.272983,42.06233],[-88.272868,42.062233],[-88.272799,42.062387],[-88.272669,42.062402],[-88.27225,42.062534],[-88.271995,42.062787],[-88.27161,42.063314],[-88.271442,42.063785],[-88.271421,42.064121],[-88.271439,42.064341],[-88.271602,42.064407],[-88.271442,42.064449],[-88.271246,42.064899],[-88.271294,42.065162],[-88.271168,42.065421],[-88.270675,42.06605],[-88.268378,42.066063],[-88.268377,42.065995],[-88.268008,42.065997],[-88.268008,42.066065],[-88.264002,42.066089],[-88.264128,42.065893],[-88.264422,42.065996],[-88.26454,42.065791],[-88.264252,42.065694],[-88.265216,42.063642]]]}}]}